IRIDIUM 7               
1 24793U 97020B   25172.98565558  .00000275  00000+0  88104-4 0  9999
2 24793  86.3982 174.9009 0002595  90.5750 269.5744 14.35942121472800
IRIDIUM 5               
1 24795U 97020D   25173.46555012  .00002907  00000+0  23604-3 0  9996
2 24795  86.3887  81.2994 0110951 118.6948 242.5488 14.94388880486280
IRIDIUM 4               
1 24796U 97020E   25173.38393791  .00000275  00000+0  86456-4 0  9993
2 24796  86.3979 171.6111 0002368  92.0913 268.0556 14.36844986473248
IRIDIUM 914             
1 24836U 97030A   25172.74743896  .00000331  00000+0  97005-4 0  9998
2 24836  86.3956 180.4605 0002188 131.1597 228.9792 14.40875094607781
IRIDIUM 16              
1 24841U 97030F   25173.47925105  .00000247  00000+0  74073-4 0  9996
2 24841  86.4048 203.0519 0004273  69.9447 290.2211 14.38717702468023
IRIDIUM 911             
1 24842U 97030G   25172.81685018  .00000358  00000+0  91332-4 0  9990
2 24842  86.4472 202.0949 0016574  83.5753 276.7337 14.47643487475754
IRIDIUM 17              
1 24870U 97034B   25172.91301613  .00000271  00000+0  83332-4 0  9997
2 24870  86.3959 232.7646 0002802  56.8243 303.3224 14.37832014464265
IRIDIUM 920             
1 24871U 97034C   25173.49900191  .00000263  00000+0  74616-4 0  9994
2 24871  86.3985 211.7410 0013715  68.8889 291.3775 14.41537372467607
